{
  "type": "FeatureCollection",
  "features": [
    {
      "type": "Feature",
      "properties": {
        "norad_id": 34784,
        "name": "COSMOS 2251 DEB",
        "group": "cosmos-2251-debris",
        "lat": -49.055160871833856,
        "lon": 157.51939707064344,
        "alt_km": 706.036131924312,
        "timestamp": "2025-12-15T22:44:29.325428+00:00",
        "meta_object_name": "COSMOS 2251 DEB",
        "meta_object_id": "1993-036AAM",
        "meta_epoch": "2025-12-15T05:15:08.792928",
        "meta_mean_motion": 14.60792274,
        "meta_eccentricity": 0.00493288,
        "meta_inclination": 74.0072,
        "meta_ra_of_asc_node": 319.6104,
        "meta_arg_of_pericenter": 128.2122,
        "meta_mean_anomaly": 232.3501,
        "meta_ephemeris_type": 0,
        "meta_classification_type": "U",
        "meta_norad_cat_id": 34784,
        "meta_element_set_no": 999,
        "meta_rev_at_epoch": 88571,
        "meta_bstar": 0.00037726383,
        "meta_mean_motion_dot": 1.843e-05,
        "meta_mean_motion_ddot": 0,
        "tle_line1": "1 34784U 93036AAM 25349.21885177  .00001843  00000+0  37726-3 0  9992",
        "tle_line2": "2 34784  74.0072 319.6104 0049328 128.2122 232.3501 14.60792274885713"
      },
      "geometry": {
        "type": "Point",
        "coordinates": [
          157.51939707064344,
          -49.055160871833856
        ]
      }
    },
    {
      "type": "Feature",
      "properties": {
        "norad_id": 34790,
        "name": "COSMOS 2251 DEB",
        "group": "cosmos-2251-debris",
        "lat": -56.121542063354454,
        "lon": -147.27090732051715,
        "alt_km": 744.0247506043916,
        "timestamp": "2025-12-15T22:44:29.325438+00:00",
        "meta_object_name": "COSMOS 2251 DEB",
        "meta_object_id": "1993-036AAT",
        "meta_epoch": "2025-12-15T03:31:02.731296",
        "meta_mean_motion": 14.2464376,
        "meta_eccentricity": 0.01006911,
        "meta_inclination": 74.0544,
        "meta_ra_of_asc_node": 239.3727,
        "meta_arg_of_pericenter": 300.5156,
        "meta_mean_anomaly": 213.3272,
        "meta_ephemeris_type": 0,
        "meta_classification_type": "U",
        "meta_norad_cat_id": 34790,
        "meta_element_set_no": 999,
        "meta_rev_at_epoch": 86607,
        "meta_bstar": 0.00060781702,
        "meta_mean_motion_dot": 1.463e-05,
        "meta_mean_motion_ddot": 0,
        "tle_line1": "1 34790U 93036AAT 25349.14655939  .00001463  00000+0  60782-3 0  9998",
        "tle_line2": "2 34790  74.0544 239.3727 0100691 300.5156 213.3272 14.24643760866073"
      },
      "geometry": {
        "type": "Point",
        "coordinates": [
          -147.27090732051715,
          -56.121542063354454
        ]
      }
    },
    {
      "type": "Feature",
      "properties": {
        "norad_id": 34792,
        "name": "COSMOS 2251 DEB",
        "group": "cosmos-2251-debris",
        "lat": -64.638720125312,
        "lon": 20.82499164815297,
        "alt_km": 704.2836304064058,
        "timestamp": "2025-12-15T22:44:29.325448+00:00",
        "meta_object_name": "COSMOS 2251 DEB",
        "meta_object_id": "1993-036AAV",
        "meta_epoch": "2025-12-14T23:05:08.306016",
        "meta_mean_motion": 14.55975898,
        "meta_eccentricity": 0.00124621,
        "meta_inclination": 74.0172,
        "meta_ra_of_asc_node": 165.4913,
        "meta_arg_of_pericenter": 259.5716,
        "meta_mean_anomaly": 226.2081,
        "meta_ephemeris_type": 0,
        "meta_classification_type": "U",
        "meta_norad_cat_id": 34792,
        "meta_element_set_no": 999,
        "meta_rev_at_epoch": 87682,
        "meta_bstar": 0.00076160801,
        "meta_mean_motion_dot": 3.325e-05,
        "meta_mean_motion_ddot": 0,
        "tle_line1": "1 34792U 93036AAV 25348.96190169  .00003325  00000+0  76161-3 0  9995",
        "tle_line2": "2 34792  74.0172 165.4913 0012462 259.5716 226.2081 14.55975898876820"
      },
      "geometry": {
        "type": "Point",
        "coordinates": [
          20.82499164815297,
          -64.638720125312
        ]
      }
    },
    {
      "type": "Feature",
      "properties": {
        "norad_id": 34793,
        "name": "COSMOS 2251 DEB",
        "group": "cosmos-2251-debris",
        "lat": -8.830373284832822,
        "lon": 66.99562657941038,
        "alt_km": 798.1907983337842,
        "timestamp": "2025-12-15T22:44:29.325459+00:00",
        "meta_object_name": "COSMOS 2251 DEB",
        "meta_object_id": "1993-036AAW",
        "meta_epoch": "2025-12-15T04:12:37.871712",
        "meta_mean_motion": 14.38648524,
        "meta_eccentricity": 0.00503961,
        "meta_inclination": 74.0025,
        "meta_ra_of_asc_node": 245.8672,
        "meta_arg_of_pericenter": 39.3518,
        "meta_mean_anomaly": 112.1202,
        "meta_ephemeris_type": 0,
        "meta_classification_type": "U",
        "meta_norad_cat_id": 34793,
        "meta_element_set_no": 999,
        "meta_rev_at_epoch": 87365,
        "meta_bstar": 0.00025476754,
        "meta_mean_motion_dot": 7.66e-06,
        "meta_mean_motion_ddot": 0,
        "tle_line1": "1 34793U 93036AAW 25349.17543833  .00000766  00000+0  25477-3 0  9990",
        "tle_line2": "2 34793  74.0025 245.8672 0050396  39.3518 112.1202 14.38648524873655"
      },
      "geometry": {
        "type": "Point",
        "coordinates": [
          66.99562657941038,
          -8.830373284832822
        ]
      }
    },
    {
      "type": "Feature",
      "properties": {
        "norad_id": 34796,
        "name": "COSMOS 2251 DEB",
        "group": "cosmos-2251-debris",
        "lat": 38.037780383764144,
        "lon": -136.723014894997,
        "alt_km": 723.84140369128,
        "timestamp": "2025-12-15T22:44:29.325469+00:00",
        "meta_object_name": "COSMOS 2251 DEB",
        "meta_object_id": "1993-036AAZ",
        "meta_epoch": "2025-12-15T01:42:54.137088",
        "meta_mean_motion": 14.48703139,
        "meta_eccentricity": 0.01002254,
        "meta_inclination": 74.0302,
        "meta_ra_of_asc_node": 211.9728,
        "meta_arg_of_pericenter": 313.5447,
        "meta_mean_anomaly": 197.9464,
        "meta_ephemeris_type": 0,
        "meta_classification_type": "U",
        "meta_norad_cat_id": 34796,
        "meta_element_set_no": 999,
        "meta_rev_at_epoch": 88061,
        "meta_bstar": 0.00045955349,
        "meta_mean_motion_dot": 1.815e-05,
        "meta_mean_motion_ddot": 0,
        "tle_line1": "1 34796U 93036AAZ 25349.07145992  .00001815  00000+0  45955-3 0  9995",
        "tle_line2": "2 34796  74.0302 211.9728 0100225 313.5447 197.9464 14.48703139880617"
      },
      "geometry": {
        "type": "Point",
        "coordinates": [
          -136.723014894997,
          38.037780383764144
        ]
      }
    },
    {
      "type": "Feature",
      "properties": {
        "norad_id": 34797,
        "name": "COSMOS 2251 DEB",
        "group": "cosmos-2251-debris",
        "lat": 73.54130711966823,
        "lon": -162.56773037717969,
        "alt_km": 761.3284587136159,
        "timestamp": "2025-12-15T22:44:29.325479+00:00",
        "meta_object_name": "COSMOS 2251 DEB",
        "meta_object_id": "1993-036ABA",
        "meta_epoch": "2025-12-15T00:40:15.633408",
        "meta_mean_motion": 14.42865963,
        "meta_eccentricity": 0.00715613,
        "meta_inclination": 73.9775,
        "meta_ra_of_asc_node": 95.7204,
        "meta_arg_of_pericenter": 208.799,
        "meta_mean_anomaly": 150.9208,
        "meta_ephemeris_type": 0,
        "meta_classification_type": "U",
        "meta_norad_cat_id": 34797,
        "meta_element_set_no": 999,
        "meta_rev_at_epoch": 87448,
        "meta_bstar": 0.0015495374,
        "meta_mean_motion_dot": 5.313e-05,
        "meta_mean_motion_ddot": 0,
        "tle_line1": "1 34797U 93036ABA 25349.02795872  .00005313  00000+0  15495-2 0  9991",
        "tle_line2": "2 34797  73.9775  95.7204 0071561 208.7990 150.9208 14.42865963874486"
      },
      "geometry": {
        "type": "Point",
        "coordinates": [
          -162.56773037717969,
          73.54130711966823
        ]
      }
    },
    {
      "type": "Feature",
      "properties": {
        "norad_id": 34814,
        "name": "COSMOS 2251 DEB",
        "group": "cosmos-2251-debris",
        "lat": 8.971981243373788,
        "lon": -37.89636515000655,
        "alt_km": 807.9410896823729,
        "timestamp": "2025-12-15T22:44:29.325489+00:00",
        "meta_object_name": "COSMOS 2251 DEB",
        "meta_object_id": "1993-036ABD",
        "meta_epoch": "2025-12-15T06:16:46.279200",
        "meta_mean_motion": 14.36906963,
        "meta_eccentricity": 0.00560142,
        "meta_inclination": 73.8956,
        "meta_ra_of_asc_node": 320.7607,
        "meta_arg_of_pericenter": 209.789,
        "meta_mean_anomaly": 212.7208,
        "meta_ephemeris_type": 0,
        "meta_classification_type": "U",
        "meta_norad_cat_id": 34814,
        "meta_element_set_no": 999,
        "meta_rev_at_epoch": 87369,
        "meta_bstar": 0.00061236247,
        "meta_mean_motion_dot": 1.818e-05,
        "meta_mean_motion_ddot": 0,
        "tle_line1": "1 34814U 93036ABD 25349.26164675  .00001818  00000+0  61236-3 0  9999",
        "tle_line2": "2 34814  73.8956 320.7607 0056014 209.7890 212.7208 14.36906963873698"
      },
      "geometry": {
        "type": "Point",
        "coordinates": [
          -37.89636515000655,
          8.971981243373788
        ]
      }
    }
  ]
}